1 37216U 10060A   18090.07661245  .00000041  00000-0  11662-4 0  9990
2 37216  97.8916 274.7108 0001617  77.0762 283.0627 14.82150514400232
1 37216U 10060A   18090.48167692  .00000038  00000-0  11284-4 0  9998
2 37216  97.8916 275.1101 0001611  76.9311 283.2091 14.82150600400291
1 37216U 10060A   18090.75171942  .00000039  00000-0  11525-4 0  9990
2 37216  97.8916 275.3767 0001600  76.3073 283.8324 14.82150734400336
1 37216U 10060A   18091.08927277  .00000048  00000-0  12635-4 0  9990
2 37216  97.8916 275.7097 0001613  76.3774 283.7618 14.82150876400385
1 37216U 10060A   18091.49433717  .00000039  00000-0  11471-4 0  9993
2 37216  97.8916 276.1090 0001619  75.1362 285.0035 14.82150895400445
1 37216U 10060A   18091.76437979  .00000037  00000-0  11260-4 0  9991
2 37216  97.8916 276.3754 0001606  74.7966 285.3427 14.82150972400483
1 37216U 10060A   18092.10193324  .00000049  00000-0  12774-4 0  9997
2 37216  97.8915 276.7081 0001610  73.7580 286.3814 14.82151138400537
1 37216U 10060A   18092.43948681  .00000039  00000-0  11416-4 0  9998
2 37216  97.8916 277.0410 0001610  73.5203 286.6189 14.82151101400581
1 37216U 10060A   18092.77704028  .00000031  00000-0  10401-4 0  9995
2 37216  97.8915 277.3738 0001603  73.2424 286.8962 14.82151077400639
1 37216U 10060A   18093.11459378  .00000048  00000-0  12639-4 0  9992
2 37216  97.8916 277.7067 0001608  72.1259 288.0130 14.82151262400680
1 37216U 10060A   18093.45214734  .00000028  00000-0  10081-4 0  9991
2 37216  97.8916 278.0397 0001609  72.8365 287.3007 14.82151068400731
1 37216U 10060A   18093.78970125  .00000015  00000-0  84704-5 0  9990
2 37216  97.8916 278.3725 0001602  72.9401 287.1981 14.82150967400785
1 37216U 10060A   18093.99223350  .00000024  00000-0  95906-5 0  9990
2 37216  97.8916 278.5723 0001605  71.4291 288.7097 14.82151059400811
1 37216U 10060A   18094.46480811  .00000035  00000-0  10912-4 0  9995
2 37216  97.8915 279.0385 0001588  74.8133 285.3256 14.82151227400886
1 37216U 10060A   18094.80236160  .00000024  00000-0  95398-5 0  9999
2 37216  97.8915 279.3711 0001585  74.4659 285.6725 14.82151181400937
1 37216U 10060A   18095.13991509  .00000011  00000-0  80081-5 0  9990
2 37216  97.8917 279.7043 0001588  74.8234 285.3130 14.82151025400986
1 37216U 10060A   18095.34244767  .00000005  00000-0  71749-5 0  9994
2 37216  97.8918 279.9040 0001594  75.2940 284.8450 14.82151003401012
1 37216U 10060A   18095.47746907 +.00000006 +00000-0 +73777-5 0  9995
2 37216 097.8918 280.0370 0001587 074.4604 285.6793 14.82151076401032
1 37216U 10060A   18095.68000101  .00000002  00000-0  68059-5 0  9990
2 37216  97.8918 280.2367 0001583  74.3109 285.8280 14.82151072401067
1 37216U 10060A   18095.81502239  .00000005  00000-0  72393-5 0  9993
2 37216  97.8921 280.3704 0001588  74.5343 285.6055 14.82151148401088
1 37216U 10060A   18096.15257552 -.00000000  00000-0  65383-5 0  9993
2 37216  97.8921 280.7034 0001594  75.8831 284.2550 14.82151124401136
1 37216U 10060A   18096.49012928 -.00000012  00000-0  50765-5 0  9997
2 37216  97.8920 281.0363 0001600  74.7991 285.3403 14.82151092401185
1 37216U 10060A   18096.76017192 -.00000019  00000-0  41648-5 0  9992
2 37216  97.8919 281.3026 0001578  74.9442 285.1949 14.82151088401222
1 37216U 10060A   18097.09772529 -.00000021  00000-0  39077-5 0  9997
2 37216  97.8920 281.6354 0001566  75.1228 285.0159 14.82151095401278
1 37216U 10060A   18097.50278974 -.00000041  00000-0  14027-5 0  9998
2 37216  97.8920 282.0347 0001589  73.3159 286.8227 14.82150937401339
1 37216U 10060A   18097.77283247 -.00000036  00000-0  20012-5 0  9991
2 37216  97.8921 282.3011 0001578  73.0050 287.1342 14.82151026401372
1 37216U 10060A   18098.11038575 -.00000013  00000-0  49840-5 0  9997
2 37216  97.8922 282.6340 0001584  72.4530 287.6859 14.82151227401421
1 37216U 10060A   18098.44793946 -.00000030  00000-0  27905-5 0  9990
2 37216  97.8923 282.9671 0001581  73.8597 286.2794 14.82151057401476
1 37216U 10060A   18098.78549296 -.00000031  00000-0  26669-5 0  9991
2 37216  97.8923 283.2998 0001592  72.3722 287.7663 14.82151054401522
1 37216U 10060A   18099.12304630 -.00000022  00000-0  38333-5 0  9992
2 37216  97.8922 283.6326 0001581  72.8690 287.2686 14.82151099401571
1 37216U 10060A   18099.46060005 -.00000024  00000-0  36045-5 0  9994
2 37216  97.8922 283.9655 0001558  73.1615 286.9773 14.82151089401622
1 37216U 10060A   18099.79815352 -.00000023  00000-0  37194-5 0  9998
2 37216  97.8923 284.2986 0001558  73.5823 286.5569 14.82151127401676
1 37216U 10060A   18100.13570676 -.00000009  00000-0  54654-5 0  9990
2 37216  97.8924 284.6318 0001579  73.2633 286.8746 14.82151221401720
1 37216U 10060A   18100.47326022 -.00000001  00000-0  64661-5 0  9992
2 37216  97.8925 284.9647 0001540  74.5277 285.6124 14.82151388401771
1 37216U 10060A   18100.81081331 -.00000002  00000-0  63146-5 0  9999
2 37216  97.8926 285.2978 0001545  73.6098 286.5292 14.82151454401825
1 37216U 10060A   18101.14836642  .00000010  00000-0  77847-5 0  9990
2 37216  97.8927 285.6307 0001562  73.6059 286.5322 14.82151590401872
1 37216U 10060A   18101.48591977  .00000019  00000-0  89771-5 0  9994
2 37216  97.8927 285.9638 0001554  72.7893 287.3509 14.82151806401921
1 37216U 10060A   18101.75596197  .00000022  00000-0  92786-5 0  9997
2 37216  97.8927 286.2301 0001554  72.7853 287.3532 14.82151897401968
1 37216U 10060A   18102.09351497  .00000032  00000-0  10573-4 0  9991
2 37216  97.8927 286.5632 0001573  75.5218 284.6166 14.82152044402010
1 37216U 10060A   18102.29604700  .00000026  00000-0  98164-5 0  9997
2 37216  97.8927 286.7628 0001582  75.2572 284.8812 14.82152019402042
1 37216U 10060A   18102.43106840 +.00000025 +00000-0 +96993-5 0  9992
2 37216 097.8928 286.8959 0001579 074.9001 285.2389 14.82152047402067
1 37216U 10060A   18102.63360033  .00000030  00000-0  10301-4 0  9994
2 37216  97.8926 287.0959 0001572  74.9082 285.2312 14.82152137402099
1 37216U 10060A   18102.76862149  .00000029  00000-0  10259-4 0  9993
2 37216  97.8927 287.2291 0001571  74.7774 285.3616 14.82152171402115
1 37216U 10060A   18103.10617461  .00000037  00000-0  11184-4 0  9994
2 37216  97.8926 287.5620 0001581  75.6063 284.5321 14.82152252402164
1 37216U 10060A   18103.51123872  .00000041  00000-0  11734-4 0  9993
2 37216  97.8927 287.9615 0001568  76.3860 283.7538 14.82152338402224
1 37216U 10060A   18103.78128098  .00000056  00000-0  13561-4 0  9993
2 37216  97.8926 288.2279 0001567  75.4694 284.6694 14.82152509402264
1 37216U 10060A   18104.11883427  .00000039  00000-0  11497-4 0  9992
2 37216  97.8927 288.5610 0001594  76.7651 283.3727 14.82152360402318
1 37216U 10060A   18104.52389873  .00000025  00000-0  97086-5 0  9997
2 37216  97.8926 288.9604 0001616  76.1191 284.0205 14.82152261402377
1 37216U 10060A   18104.79394125  .00000025  00000-0  97451-5 0  9998
2 37216  97.8926 289.2267 0001610  75.4954 284.6438 14.82152307402419
